IRIDIUM 36 [-]          
1 24967U 97056C   23314.79564498  .00000981  00000+0  32795-3 0  9996
2 24967  86.3985  58.3473 0002229  94.2367 265.9085 14.36503317368291
IRIDIUM 39 [-]          
1 25042U 97069D   23314.83657836  .00001543  00000+0  41360-3 0  9992
2 25042  86.3885 101.4129 0020485  95.5475 264.8065 14.47487028364385
IRIDIUM 38 [-]          
1 25043U 97069E   23314.87266636  .00000832  00000+0  27462-3 0  9998
2 25043  86.3924 118.8174 0001371 161.1615 198.9633 14.36957172362017
IRIDIUM 42 [-]          
1 25077U 97077A   23314.87539732  .00000744  00000+0  25312-3 0  9998
2 25077  86.3933 124.2748 0001657 104.0560 256.0821 14.35266076357355
IRIDIUM 44 [-]          
1 25078U 97077B   23314.93089964  .00000870  00000+0  27527-3 0  9993
2 25078  86.3921 107.7413 0003472 117.8426 242.3125 14.39064138359646
IRIDIUM 45 [-]          
1 25104U 97082A   23315.10083864  .00013870  00000+0  88674-3 0  9996
2 25104  86.3735 324.5730 0175110 313.2015  45.4697 14.96620660364277
IRIDIUM 24 [-]          
1 25105U 97082B   23314.80224513  .00000989  00000+0  30263-3 0  9999
2 25105  86.3893 327.7739 0010730 196.3237 163.7619 14.40823393359032
IRIDIUM 51 [-]          
1 25262U 98018A   23314.81358849  .00016088  00000+0  88443-3 0  9994
2 25262  86.3927 335.1628 0160238 267.0917  91.1970 15.03552685358377
